     2              NAVIGATION DATA                         RINEX VERSION / TYPE
CCRINEXN V1.6.0 UX  CDDIS               13-FEB-19 17:31     PGM / RUN BY / DATE 
IGS BROADCAST EPHEMERIS FILE                                COMMENT             
    0.8382D-08 -0.7451D-08 -0.5960D-07  0.5960D-07          ION ALPHA           
    0.8806D+05 -0.1638D+05 -0.1966D+06  0.6554D+05          ION BETA            
   -0.186264514923D-08 0.266453525910D-14   319488     2040 DELTA-UTC: A0,A1,T,W
    18                                                      LEAP SECONDS        
                                                            END OF HEADER       
12 19  2 12 16  0  0.0 0.268545933068D-03-0.318323145621D-11 0.000000000000D+00
    0.170000000000D+02 0.166250000000D+02 0.420767509723D-08 0.338331077167D+00
    0.854954123497D-06 0.742667459417D-02 0.484846532345D-05 0.515369882965D+04
    0.230400000000D+06-0.135973095894D-06-0.313365742898D+01 0.108033418655D-06
    0.984244250021D+00 0.298125000000D+03 0.103232188968D+01-0.819212697678D-08
   -0.200365488090D-09 0.100000000000D+01 0.204000000000D+04 0.000000000000D+00
    0.200000000000D+01 0.000000000000D+00-0.125728547573D-07 0.170000000000D+02
    0.223230000000D+06 0.000000000000D+00 0.000000000000D+00 0.000000000000D+00
13 19  2 12 16  0  0.0-0.751656480134D-04 0.125055521494D-11 0.000000000000D+00
    0.760000000000D+02 0.141250000000D+02 0.439661170795D-08 0.273436976363D+01
    0.622123479843D-06 0.372839369811D-02 0.103265047073D-04 0.515366632462D+04
    0.230400000000D+06 0.502914190292D-07 0.111048505698D+01-0.968575477600D-07
    0.967899184818D+00 0.183218750000D+03 0.137300978200D+01-0.783532637279D-08
   -0.217866217860D-09 0.100000000000D+01 0.204000000000D+04 0.000000000000D+00
    0.200000000000D+01 0.000000000000D+00-0.111758708954D-07 0.760000000000D+02
    0.223218000000D+06 0.400000000000D+01 0.000000000000D+00 0.000000000000D+00
15 19  2 12 16  0  0.0-0.328161753714D-03 0.170530256582D-11 0.000000000000D+00
    0.580000000000D+02-0.156875000000D+02 0.538915312376D-08 0.295286373243D+01
   -0.910833477974D-06 0.112128566252D-01 0.950880348682D-05 0.515363603592D+04
    0.230400000000D+06-0.242143869400D-07 0.897431573719D+00-0.184401869774D-06
    0.928030127723D+00 0.178156250000D+03 0.763367371989D+00-0.819748446901D-08
   -0.238938535624D-09 0.100000000000D+01 0.204000000000D+04 0.000000000000D+00
    0.200000000000D+01 0.000000000000D+00-0.107102096081D-07 0.580000000000D+02
    0.000000000000D+00 0.000000000000D+00 0.000000000000D+00 0.000000000000D+00
16 19  2 12 16  0  0.0-0.187559053302D-04-0.250111042988D-11 0.000000000000D+00
    0.490000000000D+02 0.787500000000D+01 0.402981071493D-08-0.156259166924D+01
    0.378116965294D-06 0.105720254360D-01 0.473484396934D-05 0.515377373123D+04
    0.230400000000D+06 0.128522515297D-06-0.311475494013D+01-0.128522515297D-06
    0.984621232307D+00 0.299562500000D+03 0.538322125403D+00-0.792425864861D-08
   -0.714315468392D-10 0.100000000000D+01 0.204000000000D+04 0.000000000000D+00
    0.200000000000D+01 0.000000000000D+00-0.107102096081D-07 0.490000000000D+02
    0.223698000000D+06 0.400000000000D+01 0.000000000000D+00 0.000000000000D+00
17 19  2 12 16  0  0.0 0.878330320120D-05 0.545696821064D-11 0.000000000000D+00
    0.185000000000D+03-0.399062500000D+02 0.378765777115D-08-0.248413963036D+01
   -0.202655792236D-05 0.129899907624D-01 0.808946788311D-05 0.515369558334D+04
    0.230400000000D+06 0.156462192535D-06-0.210049747303D+01-0.931322574616D-08
    0.983774960530D+00 0.234625000000D+03-0.172308307792D+01-0.758103006605D-08
   -0.278583032673D-10 0.100000000000D+01 0.204000000000D+04 0.000000000000D+00
    0.280000000000D+01 0.000000000000D+00-0.111758708954D-07 0.185000000000D+03
    0.223218000000D+06 0.400000000000D+01 0.000000000000D+00 0.000000000000D+00
18 19  2 12 16  0  0.0 0.252812169492D-04 0.386535248253D-11 0.000000000000D+00
    0.580000000000D+02-0.169062500000D+02 0.463269289597D-08 0.144447373686D+01
   -0.102818012237D-05 0.150476406561D-01 0.790134072304D-05 0.515373798561D+04
    0.230400000000D+06-0.236555933952D-06-0.115288531638D+01-0.333413481712D-06
    0.952695372729D+00 0.224718750000D+03 0.137466985462D+01-0.829427371230D-08
    0.332156691041D-09 0.100000000000D+01 0.204000000000D+04 0.000000000000D+00
    0.200000000000D+01 0.000000000000D+00-0.605359673500D-08 0.580000000000D+02
    0.227670000000D+06 0.000000000000D+00 0.000000000000D+00 0.000000000000D+00
19 19  2 12 16  0  0.0-0.353238545358D-03 0.409272615798D-11 0.000000000000D+00
    0.960000000000D+02-0.413437500000D+02 0.386730394588D-08 0.315475415012D+00
   -0.205449759960D-05 0.938060530461D-02 0.872276723385D-05 0.515362458038D+04
    0.230400000000D+06-0.214204192162D-06-0.205403364121D+01-0.111758708954D-07
    0.981493892349D+00 0.226281250000D+03 0.134311354571D+01-0.794640242813D-08
   -0.111790370803D-09 0.100000000000D+01 0.204000000000D+04 0.000000000000D+00
    0.200000000000D+01 0.000000000000D+00-0.153668224812D-07 0.960000000000D+02
    0.223218000000D+06 0.400000000000D+01 0.000000000000D+00 0.000000000000D+00
20 19  2 12 16  0  0.0 0.522134359926D-03 0.341060513165D-12 0.000000000000D+00
    0.800000000000D+02-0.196562500000D+02 0.549344303380D-08 0.136618846124D+01
   -0.105798244476D-05 0.440931285266D-02 0.627711415291D-05 0.515366819763D+04
    0.230400000000D+06 0.782310962677D-07-0.175709352554D+00-0.223517417908D-07
    0.930329726687D+00 0.241125000000D+03 0.227615171892D+01-0.851285442138D-08
    0.163221089422D-09 0.100000000000D+01 0.204000000000D+04 0.000000000000D+00
    0.200000000000D+01 0.000000000000D+00-0.838190317154D-08 0.800000000000D+02
    0.223230000000D+06 0.000000000000D+00 0.000000000000D+00 0.000000000000D+00
21 19  2 12 16  0  0.0-0.251491554081D-03 0.716227077646D-11 0.000000000000D+00
    0.200000000000D+02-0.165937500000D+02 0.490341856008D-08-0.798357420277D-01
   -0.849366188049D-06 0.247365112882D-01 0.850483775139D-05 0.515379242706D+04
    0.230400000000D+06-0.433996319771D-06-0.116144881311D+01-0.260770320892D-07
    0.946998164080D+00 0.215281250000D+03-0.147786293291D+01-0.864357474484D-08
    0.358229196307D-09 0.100000000000D+01 0.204000000000D+04 0.000000000000D+00
    0.200000000000D+01 0.000000000000D+00-0.102445483208D-07 0.200000000000D+02
    0.223230000000D+06 0.000000000000D+00 0.000000000000D+00 0.000000000000D+00
22 19  2 12 16  0  0.0-0.643720850349D-03-0.818545231596D-11 0.000000000000D+00
    0.320000000000D+02-0.243750000000D+02 0.553987361511D-08 0.307252651070D+01
   -0.149570405483D-05 0.717324775178D-02 0.609830021858D-05 0.515357901764D+04
    0.230400000000D+06 0.201165676117D-06-0.126706304569D+00 0.577419996262D-07
    0.927064500849D+00 0.241375000000D+03-0.142010988370D+01-0.852071206472D-08
    0.130719730716D-09 0.100000000000D+01 0.204000000000D+04 0.000000000000D+00
    0.200000000000D+01 0.000000000000D+00-0.181607902050D-07 0.320000000000D+02
    0.000000000000D+00 0.400000000000D+01 0.000000000000D+00 0.000000000000D+00
23 19  2 12 16  0  0.0-0.197471585125D-03 0.125055521494D-11 0.000000000000D+00
    0.600000000000D+02-0.712500000000D+01 0.496592113626D-08 0.243046138293D+01
   -0.493600964546D-06 0.127836982720D-01 0.957585871220D-05 0.515364506912D+04
    0.230400000000D+06-0.651925802231D-07 0.970695241125D+00-0.217929482460D-06
    0.943279486303D+00 0.187968750000D+03-0.230002124621D+01-0.802461997192D-08
   -0.126076680171D-09 0.100000000000D+01 0.204000000000D+04 0.000000000000D+00
    0.200000000000D+01 0.000000000000D+00-0.200234353542D-07 0.600000000000D+02
    0.000000000000D+00 0.400000000000D+01 0.000000000000D+00 0.000000000000D+00
24 19  2 12 16  0  0.0-0.620628707111D-04-0.568434188608D-12 0.000000000000D+00
    0.360000000000D+02 0.796250000000D+02 0.511021269745D-08 0.196731021608D+01
    0.406242907047D-05 0.816429243423D-02 0.902079045773D-05 0.515373224449D+04
    0.230400000000D+06-0.199303030968D-06 0.198750253640D+01 0.260770320892D-07
    0.939134682432D+00 0.194062500000D+03 0.594063112199D+00-0.834570457187D-08
    0.107147320530D-11 0.100000000000D+01 0.204000000000D+04 0.000000000000D+00
    0.200000000000D+01 0.000000000000D+00 0.279396772385D-08 0.360000000000D+02
    0.000000000000D+00 0.000000000000D+00 0.000000000000D+00 0.000000000000D+00
25 19  2 12 16  0  0.0-0.719424802810D-03-0.545696821064D-11 0.000000000000D+00
    0.640000000000D+02 0.235937500000D+02 0.453626025632D-08 0.275529326502D-01
    0.125914812088D-05 0.817846436985D-02 0.453554093838D-05 0.515375445366D+04
    0.230400000000D+06-0.223517417908D-07 0.308653966839D+01 0.122934579849D-06
    0.971710760819D+00 0.295531250000D+03 0.856175336739D+00-0.840070679686D-08
   -0.158935198335D-09 0.100000000000D+01 0.204000000000D+04 0.000000000000D+00
    0.200000000000D+01 0.000000000000D+00 0.558793544769D-08 0.640000000000D+02
    0.223230000000D+06 0.000000000000D+00 0.000000000000D+00 0.000000000000D+00
26 19  2 12 16  0  0.0 0.122536439449D-03 0.103455022327D-10 0.000000000000D+00
    0.200000000000D+02 0.225625000000D+02 0.481198636493D-08-0.680004977737D+00
    0.111944973469D-05 0.364007602911D-02 0.459514558315D-05 0.515379635429D+04
    0.230400000000D+06 0.949949026108D-07 0.305989535708D+01 0.931322574616D-08
    0.953058315390D+00 0.287343750000D+03 0.124698291510D+00-0.839999270141D-08
   -0.166435504267D-09 0.100000000000D+01 0.204000000000D+04 0.000000000000D+00
    0.200000000000D+01 0.000000000000D+00 0.745058059692D-08 0.200000000000D+02
    0.226290000000D+06 0.000000000000D+00 0.000000000000D+00 0.000000000000D+00
